{
  "type": "FeatureCollection",
  "features": [
    {
      "type": "Feature",
      "properties": {
        "norad_id": 63772,
        "name": "BIOMASS",
        "group": "resource",
        "lat": -37.84242764524941,
        "lon": -21.512158003383234,
        "alt_km": 675.973547763755,
        "timestamp": "2025-12-05T16:54:14.327697+00:00",
        "meta_object_name": "BIOMASS",
        "meta_object_id": "2025-090A",
        "meta_epoch": "2025-12-05T06:05:40.852320",
        "meta_mean_motion": 14.67545018,
        "meta_eccentricity": 0.00012158,
        "meta_inclination": 98.0698,
        "meta_ra_of_asc_node": 164.3722,
        "meta_arg_of_pericenter": 80.3312,
        "meta_mean_anomaly": 279.803,
        "meta_ephemeris_type": 0,
        "meta_classification_type": "U",
        "meta_norad_cat_id": 63772,
        "meta_element_set_no": 999,
        "meta_rev_at_epoch": 3224,
        "meta_bstar": 0.00050566051,
        "meta_mean_motion_dot": 2.821e-05,
        "meta_mean_motion_ddot": 0,
        "tle_line1": "1 63772U 25090A   25339.25394505  .00002821  00000+0  50566-3 0  9993",
        "tle_line2": "2 63772  98.0698 164.3722 0001215  80.3312 279.8030 14.67545018 32249"
      },
      "geometry": {
        "type": "Point",
        "coordinates": [
          -21.512158003383234,
          -37.84242764524941
        ]
      }
    },
    {
      "type": "Feature",
      "properties": {
        "norad_id": 64694,
        "name": "GOSAT-GW (IBUKI GW)",
        "group": "resource",
        "lat": 65.88071624748679,
        "lon": -103.06001559528328,
        "alt_km": 661.3656591832005,
        "timestamp": "2025-12-05T16:54:14.327706+00:00",
        "meta_object_name": "GOSAT-GW (IBUKI GW)",
        "meta_object_id": "2025-141A",
        "meta_epoch": "2025-11-30T05:41:32.267328",
        "meta_mean_motion": 14.67567435,
        "meta_eccentricity": 0.00014369,
        "meta_inclination": 98.0401,
        "meta_ra_of_asc_node": 269.9775,
        "meta_arg_of_pericenter": 82.921,
        "meta_mean_anomaly": 277.2158,
        "meta_ephemeris_type": 0,
        "meta_classification_type": "U",
        "meta_norad_cat_id": 64694,
        "meta_element_set_no": 999,
        "meta_rev_at_epoch": 2266,
        "meta_bstar": 0.00019762357,
        "meta_mean_motion_dot": 1.074e-05,
        "meta_mean_motion_ddot": 0,
        "tle_line1": "1 64694U 25141A   25334.23717902  .00001074  00000+0  19762-3 0  9999",
        "tle_line2": "2 64694  98.0401 269.9775 0001436  82.9210 277.2158 14.67567435 22660"
      },
      "geometry": {
        "type": "Point",
        "coordinates": [
          -103.06001559528328,
          65.88071624748679
        ]
      }
    },
    {
      "type": "Feature",
      "properties": {
        "norad_id": 64876,
        "name": "IONOSFERA-M 3",
        "group": "resource",
        "lat": 23.826803564439505,
        "lon": 125.59147838499636,
        "alt_km": 819.7495980727963,
        "timestamp": "2025-12-05T16:54:14.327715+00:00",
        "meta_object_name": "IONOSFERA-M 3",
        "meta_object_id": "2025-155A",
        "meta_epoch": "2025-12-05T07:43:36.450624",
        "meta_mean_motion": 14.2143817,
        "meta_eccentricity": 0.00023732,
        "meta_inclination": 98.5772,
        "meta_ra_of_asc_node": 301.3984,
        "meta_arg_of_pericenter": 71.6846,
        "meta_mean_anomaly": 288.459,
        "meta_ephemeris_type": 0,
        "meta_classification_type": "U",
        "meta_norad_cat_id": 64876,
        "meta_element_set_no": 999,
        "meta_rev_at_epoch": 1886,
        "meta_bstar": 9.4037248e-05,
        "meta_mean_motion_dot": 1.63e-06,
        "meta_mean_motion_ddot": 0,
        "tle_line1": "1 64876U 25155A   25339.32194966  .00000163  00000+0  94037-4 0  9997",
        "tle_line2": "2 64876  98.5772 301.3984 0002373  71.6846 288.4590 14.21438170 18866"
      },
      "geometry": {
        "type": "Point",
        "coordinates": [
          125.59147838499636,
          23.826803564439505
        ]
      }
    },
    {
      "type": "Feature",
      "properties": {
        "norad_id": 64877,
        "name": "IONOSFERA-M 4",
        "group": "resource",
        "lat": -23.465363680628958,
        "lon": -54.55400947361036,
        "alt_km": 825.9822493111251,
        "timestamp": "2025-12-05T16:54:14.327724+00:00",
        "meta_object_name": "IONOSFERA-M 4",
        "meta_object_id": "2025-155B",
        "meta_epoch": "2025-12-05T06:52:44.842368",
        "meta_mean_motion": 14.21439185,
        "meta_eccentricity": 0.00017271,
        "meta_inclination": 98.5771,
        "meta_ra_of_asc_node": 301.2838,
        "meta_arg_of_pericenter": 71.1409,
        "meta_mean_anomaly": 288.9956,
        "meta_ephemeris_type": 0,
        "meta_classification_type": "U",
        "meta_norad_cat_id": 64877,
        "meta_element_set_no": 999,
        "meta_rev_at_epoch": 1885,
        "meta_bstar": 9.4949243e-05,
        "meta_mean_motion_dot": 1.65e-06,
        "meta_mean_motion_ddot": 0,
        "tle_line1": "1 64877U 25155B   25339.28663012  .00000165  00000+0  94949-4 0  9990",
        "tle_line2": "2 64877  98.5771 301.2838 0001727  71.1409 288.9956 14.21439185 18852"
      },
      "geometry": {
        "type": "Point",
        "coordinates": [
          -54.55400947361036,
          -23.465363680628958
        ]
      }
    },
    {
      "type": "Feature",
      "properties": {
        "norad_id": 64899,
        "name": "MICROCARB",
        "group": "resource",
        "lat": -67.22420971925584,
        "lon": 74.74029323715982,
        "alt_km": 668.4938695839346,
        "timestamp": "2025-12-05T16:54:14.327733+00:00",
        "meta_object_name": "MICROCARB",
        "meta_object_id": "2025-156A",
        "meta_epoch": "2025-12-05T04:09:54.351936",
        "meta_mean_motion": 14.7203828,
        "meta_eccentricity": 0.00166291,
        "meta_inclination": 98.0032,
        "meta_ra_of_asc_node": 54.6401,
        "meta_arg_of_pericenter": 168.2331,
        "meta_mean_anomaly": 191.9268,
        "meta_ephemeris_type": 0,
        "meta_classification_type": "U",
        "meta_norad_cat_id": 64899,
        "meta_element_set_no": 999,
        "meta_rev_at_epoch": 1942,
        "meta_bstar": 0.00024834257,
        "meta_mean_motion_dot": 1.513e-05,
        "meta_mean_motion_ddot": 0,
        "tle_line1": "1 64899U 25156A   25339.17354574  .00001513  00000+0  24834-3 0  9996",
        "tle_line2": "2 64899  98.0032  54.6401 0016629 168.2331 191.9268 14.72038280 19425"
      },
      "geometry": {
        "type": "Point",
        "coordinates": [
          74.74029323715982,
          -67.22420971925584
        ]
      }
    },
    {
      "type": "Feature",
      "properties": {
        "norad_id": 64900,
        "name": "CO3D 3",
        "group": "resource",
        "lat": -15.680523118828784,
        "lon": -125.92819997775663,
        "alt_km": 509.63406059471527,
        "timestamp": "2025-12-05T16:54:14.327742+00:00",
        "meta_object_name": "CO3D 3",
        "meta_object_id": "2025-156B",
        "meta_epoch": "2025-12-02T23:16:40.108224",
        "meta_mean_motion": 15.2021179,
        "meta_eccentricity": 0.00013753,
        "meta_inclination": 97.4352,
        "meta_ra_of_asc_node": 53.4771,
        "meta_arg_of_pericenter": 132.9697,
        "meta_mean_anomaly": 227.1654,
        "meta_ephemeris_type": 0,
        "meta_classification_type": "U",
        "meta_norad_cat_id": 64900,
        "meta_element_set_no": 999,
        "meta_rev_at_epoch": 1972,
        "meta_bstar": 0.00042667501,
        "meta_mean_motion_dot": 9.183e-05,
        "meta_mean_motion_ddot": 0,
        "tle_line1": "1 64900U 25156B   25336.96990866  .00009183  00000+0  42668-3 0  9999",
        "tle_line2": "2 64900  97.4352  53.4771 0001375 132.9697 227.1654 15.20211790 19725"
      },
      "geometry": {
        "type": "Point",
        "coordinates": [
          -125.92819997775663,
          -15.680523118828784
        ]
      }
    },
    {
      "type": "Feature",
      "properties": {
        "norad_id": 64901,
        "name": "CO3D 4",
        "group": "resource",
        "lat": -14.49671124982417,
        "lon": -125.7618471557999,
        "alt_km": 509.27383593409013,
        "timestamp": "2025-12-05T16:54:14.327751+00:00",
        "meta_object_name": "CO3D 4",
        "meta_object_id": "2025-156C",
        "meta_epoch": "2025-12-01T18:50:45.474720",
        "meta_mean_motion": 15.20204195,
        "meta_eccentricity": 0.00012108,
        "meta_inclination": 97.4354,
        "meta_ra_of_asc_node": 52.3098,
        "meta_arg_of_pericenter": 238.3057,
        "meta_mean_anomaly": 121.806,
        "meta_ephemeris_type": 0,
        "meta_classification_type": "U",
        "meta_norad_cat_id": 64901,
        "meta_element_set_no": 999,
        "meta_rev_at_epoch": 1954,
        "meta_bstar": -1.4420799e-05,
        "meta_mean_motion_dot": -3.8e-06,
        "meta_mean_motion_ddot": 0,
        "tle_line1": "1 64901U 25156C   25335.78524855 -.00000380  00000+0 -14421-4 0  9999",
        "tle_line2": "2 64901  97.4354  52.3098 0001210 238.3057 121.8060 15.20204195 19549"
      },
      "geometry": {
        "type": "Point",
        "coordinates": [
          -125.7618471557999,
          -14.49671124982417
        ]
      }
    }
  ]
}